{
  "type": "FeatureCollection",
  "features": [
    {
      "type": "Feature",
      "properties": {
        "norad_id": 30940,
        "name": "FENGYUN 1C DEB",
        "group": "fengyun-1c-debris",
        "lat": 70.05440633457692,
        "lon": -159.92398129462904,
        "alt_km": 876.8132147109691,
        "timestamp": "2025-12-21T09:37:22.934306+00:00",
        "meta_object_name": "FENGYUN 1C DEB",
        "meta_object_id": "1999-025BAE",
        "meta_epoch": "2025-12-19T11:47:40.505856",
        "meta_mean_motion": 14.08314856,
        "meta_eccentricity": 0.0040825,
        "meta_inclination": 98.6224,
        "meta_ra_of_asc_node": 353.5356,
        "meta_arg_of_pericenter": 344.5495,
        "meta_mean_anomaly": 167.3735,
        "meta_ephemeris_type": 0,
        "meta_classification_type": "U",
        "meta_norad_cat_id": 30940,
        "meta_element_set_no": 999,
        "meta_rev_at_epoch": 96227,
        "meta_bstar": 0.00030983,
        "meta_mean_motion_dot": 4.92e-06,
        "meta_mean_motion_ddot": 0,
        "tle_line1": "1 30940U 99025BAE 25353.49144104  .00000492  00000+0  30983-3 0  9996",
        "tle_line2": "2 30940  98.6224 353.5356 0040825 344.5495 167.3735 14.08314856962270"
      },
      "geometry": {
        "type": "Point",
        "coordinates": [
          -159.92398129462904,
          70.05440633457692
        ]
      }
    },
    {
      "type": "Feature",
      "properties": {
        "norad_id": 30941,
        "name": "FENGYUN 1C DEB",
        "group": "fengyun-1c-debris",
        "lat": -13.44799922080969,
        "lon": 30.018409550706583,
        "alt_km": 795.8840033185124,
        "timestamp": "2025-12-21T09:37:22.934316+00:00",
        "meta_object_name": "FENGYUN 1C DEB",
        "meta_object_id": "1999-025BAF",
        "meta_epoch": "2025-12-19T01:20:41.519904",
        "meta_mean_motion": 14.31096185,
        "meta_eccentricity": 0.00336135,
        "meta_inclination": 98.546,
        "meta_ra_of_asc_node": 209.773,
        "meta_arg_of_pericenter": 298.6142,
        "meta_mean_anomaly": 61.1661,
        "meta_ephemeris_type": 0,
        "meta_classification_type": "U",
        "meta_norad_cat_id": 30941,
        "meta_element_set_no": 999,
        "meta_rev_at_epoch": 96716,
        "meta_bstar": 0.0014340473,
        "meta_mean_motion_dot": 3.761e-05,
        "meta_mean_motion_ddot": 0,
        "tle_line1": "1 30941U 99025BAF 25353.05603611  .00003761  00000+0  14340-2 0  9992",
        "tle_line2": "2 30941  98.5460 209.7730 0033613 298.6142  61.1661 14.31096185967165"
      },
      "geometry": {
        "type": "Point",
        "coordinates": [
          30.018409550706583,
          -13.44799922080969
        ]
      }
    },
    {
      "type": "Feature",
      "properties": {
        "norad_id": 30942,
        "name": "FENGYUN 1C DEB",
        "group": "fengyun-1c-debris",
        "lat": 54.07441324137675,
        "lon": -18.764153277759814,
        "alt_km": 748.3004221110368,
        "timestamp": "2025-12-21T09:37:22.934327+00:00",
        "meta_object_name": "FENGYUN 1C DEB",
        "meta_object_id": "1999-025BAG",
        "meta_epoch": "2025-12-20T12:00:24.192864",
        "meta_mean_motion": 14.14845093,
        "meta_eccentricity": 0.01380281,
        "meta_inclination": 98.6796,
        "meta_ra_of_asc_node": 352.5303,
        "meta_arg_of_pericenter": 84.2649,
        "meta_mean_anomaly": 66.5153,
        "meta_ephemeris_type": 0,
        "meta_classification_type": "U",
        "meta_norad_cat_id": 30942,
        "meta_element_set_no": 999,
        "meta_rev_at_epoch": 96754,
        "meta_bstar": 0.00017466716,
        "meta_mean_motion_dot": 3.28e-06,
        "meta_mean_motion_ddot": 0,
        "tle_line1": "1 30942U 99025BAG 25354.50028001  .00000328  00000+0  17467-3 0  9998",
        "tle_line2": "2 30942  98.6796 352.5303 0138028  84.2649  66.5153 14.14845093967547"
      },
      "geometry": {
        "type": "Point",
        "coordinates": [
          -18.764153277759814,
          54.07441324137675
        ]
      }
    },
    {
      "type": "Feature",
      "properties": {
        "norad_id": 30943,
        "name": "FENGYUN 1C DEB",
        "group": "fengyun-1c-debris",
        "lat": 70.05138496413082,
        "lon": -16.203962324267497,
        "alt_km": 839.6069474404412,
        "timestamp": "2025-12-21T09:37:22.934338+00:00",
        "meta_object_name": "FENGYUN 1C DEB",
        "meta_object_id": "1999-025BAH",
        "meta_epoch": "2025-12-20T07:38:18.723264",
        "meta_mean_motion": 14.04497018,
        "meta_eccentricity": 0.00507,
        "meta_inclination": 98.7975,
        "meta_ra_of_asc_node": 8.0033,
        "meta_arg_of_pericenter": 44.8439,
        "meta_mean_anomaly": 315.6809,
        "meta_ephemeris_type": 0,
        "meta_classification_type": "U",
        "meta_norad_cat_id": 30943,
        "meta_element_set_no": 999,
        "meta_rev_at_epoch": 95848,
        "meta_bstar": 0.00028856793,
        "meta_mean_motion_dot": 4.23e-06,
        "meta_mean_motion_ddot": 0,
        "tle_line1": "1 30943U 99025BAH 25354.31827226  .00000423  00000+0  28857-3 0  9995",
        "tle_line2": "2 30943  98.7975   8.0033 0050700  44.8439 315.6809 14.04497018958488"
      },
      "geometry": {
        "type": "Point",
        "coordinates": [
          -16.203962324267497,
          70.05138496413082
        ]
      }
    },
    {
      "type": "Feature",
      "properties": {
        "norad_id": 30944,
        "name": "FENGYUN 1C DEB",
        "group": "fengyun-1c-debris",
        "lat": -53.635730718786974,
        "lon": 63.78531989458571,
        "alt_km": 790.5214904639179,
        "timestamp": "2025-12-21T09:37:22.934348+00:00",
        "meta_object_name": "FENGYUN 1C DEB",
        "meta_object_id": "1999-025BAJ",
        "meta_epoch": "2025-12-19T22:18:44.630208",
        "meta_mean_motion": 14.52453365,
        "meta_eccentricity": 0.0149302,
        "meta_inclination": 98.8493,
        "meta_ra_of_asc_node": 50.0189,
        "meta_arg_of_pericenter": 79.0652,
        "meta_mean_anomaly": 99.1496,
        "meta_ephemeris_type": 0,
        "meta_classification_type": "U",
        "meta_norad_cat_id": 30944,
        "meta_element_set_no": 999,
        "meta_rev_at_epoch": 99180,
        "meta_bstar": 9.7803e-05,
        "meta_mean_motion_dot": 4.04e-06,
        "meta_mean_motion_ddot": 0,
        "tle_line1": "1 30944U 99025BAJ 25353.92968322  .00000404  00000+0  97803-4 0  9992",
        "tle_line2": "2 30944  98.8493  50.0189 0149302  79.0652  99.1496 14.52453365991807"
      },
      "geometry": {
        "type": "Point",
        "coordinates": [
          63.78531989458571,
          -53.635730718786974
        ]
      }
    },
    {
      "type": "Feature",
      "properties": {
        "norad_id": 30945,
        "name": "FENGYUN 1C DEB",
        "group": "fengyun-1c-debris",
        "lat": 69.7251959202764,
        "lon": -21.870329894911816,
        "alt_km": 774.0209739430002,
        "timestamp": "2025-12-21T09:37:22.934358+00:00",
        "meta_object_name": "FENGYUN 1C DEB",
        "meta_object_id": "1999-025BAK",
        "meta_epoch": "2025-12-19T06:59:47.956992",
        "meta_mean_motion": 14.2976616,
        "meta_eccentricity": 0.0030455,
        "meta_inclination": 99.3889,
        "meta_ra_of_asc_node": 2.4658,
        "meta_arg_of_pericenter": 20.0762,
        "meta_mean_anomaly": 0.0251,
        "meta_ephemeris_type": 0,
        "meta_classification_type": "U",
        "meta_norad_cat_id": 30945,
        "meta_element_set_no": 999,
        "meta_rev_at_epoch": 96531,
        "meta_bstar": 0.0012265,
        "meta_mean_motion_dot": 3.116e-05,
        "meta_mean_motion_ddot": 0,
        "tle_line1": "1 30945U 99025BAK 25353.29152728  .00003116  00000+0  12265-2 0  9998",
        "tle_line2": "2 30945  99.3889   2.4658 0030455  20.0762   0.0251 14.29766160965312"
      },
      "geometry": {
        "type": "Point",
        "coordinates": [
          -21.870329894911816,
          69.7251959202764
        ]
      }
    },
    {
      "type": "Feature",
      "properties": {
        "norad_id": 30946,
        "name": "FENGYUN 1C DEB",
        "group": "fengyun-1c-debris",
        "lat": -59.69204102223015,
        "lon": -84.61359535584344,
        "alt_km": 720.2800677827881,
        "timestamp": "2025-12-21T09:37:22.934368+00:00",
        "meta_object_name": "FENGYUN 1C DEB",
        "meta_object_id": "1999-025BAL",
        "meta_epoch": "2025-12-19T07:02:00.718368",
        "meta_mean_motion": 14.48183979,
        "meta_eccentricity": 0.0089544,
        "meta_inclination": 99.0393,
        "meta_ra_of_asc_node": 108.9364,
        "meta_arg_of_pericenter": 173.4604,
        "meta_mean_anomaly": 243.2683,
        "meta_ephemeris_type": 0,
        "meta_classification_type": "U",
        "meta_norad_cat_id": 30946,
        "meta_element_set_no": 999,
        "meta_rev_at_epoch": 98446,
        "meta_bstar": 0.00053284,
        "meta_mean_motion_dot": 2.036e-05,
        "meta_mean_motion_ddot": 0,
        "tle_line1": "1 30946U 99025BAL 25353.29306387  .00002036  00000+0  53284-3 0  9998",
        "tle_line2": "2 30946  99.0393 108.9364 0089544 173.4604 243.2683 14.48183979984466"
      },
      "geometry": {
        "type": "Point",
        "coordinates": [
          -84.61359535584344,
          -59.69204102223015
        ]
      }
    }
  ]
}